[{"OBJECT_NAME":"STARLINK-5106","OBJECT_ID":"2022-177D","EPOCH":"2026-03-09T05:32:34.269216","MEAN_MOTION":15.02534164,"ECCENTRICITY":0.00011238,"INCLINATION":43.006,"RA_OF_ASC_NODE":136.0572,"ARG_OF_PERICENTER":254.3971,"MEAN_ANOMALY":105.6747,"EPHEMERIS_TYPE":0,"CLASSIFICATION_TYPE":"U","NORAD_CAT_ID":54823,"ELEMENT_SET_NO":999,"REV_AT_EPOCH":17688,"BSTAR":-1.6203346e-5,"MEAN_MOTION_DOT":-4.22e-6,"MEAN_MOTION_DDOT":0},{"OBJECT_NAME":"COSMOS 970 DEB","OBJECT_ID":"1977-121BW","EPOCH":"2026-03-09T04:53:14.846784","MEAN_MOTION":14.37544219,"ECCENTRICITY":0.03554347,"INCLINATION":65.6599,"RA_OF_ASC_NODE":142.1451,"ARG_OF_PERICENTER":356.6534,"MEAN_ANOMALY":33.036,"EPHEMERIS_TYPE":0,"CLASSIFICATION_TYPE":"U","NORAD_CAT_ID":20032,"ELEMENT_SET_NO":999,"REV_AT_EPOCH":64092,"BSTAR":0.00097582793,"MEAN_MOTION_DOT":6.002e-5,"MEAN_MOTION_DDOT":0}]
